item_id	title	description	latitude	longitude	address
1579430281	1-к квартира, 40 м², 24/24 эт.	Собственник! Сдается квартира на длительный срок для граждан РФ. Хорошая однокомнатная квартира в уютном и тихом районе, рядом с заповедником "Царицыно". Панельный дом, очень теплый с консьержкой и камерами видеонаблюдения в подъезде и лифтах. В квартире есть все необходимое: 2 раскладных дивана, 2 шкафа, стиральная машина, холодильник, плита с духовкой. Необходимо соблюдать чистоту и тишину. Без животных. В арендную плату не входит электричество и вода. Звонить с 10:00-22:00	55.58057785	37.68936157	"Москва, Загорьевская улица, 17"
938411399	2-к квартира, 58 м², 6/16 эт.	Продается квартира в экологически чистом районе г.Москвы, о чем свидетельствует нахождение детского бронхиального санатория. Квартира с качественным ремонтом :выравнены потолки и стены. установлены новые межкомнатные двери, стеклопакеты ,встроенная кухня с импортной варочной панелью остается, итальянская плитка в ванной и туалете .Остаются кондиционеры и встроенные шкафы. Ухоженный двор, чистый подъезд, консьерж, хорошие соседи.Панорамный вид на Битцевский парк. Два Коньковских пруда в шаговой доступности.В собственности более 10 лет, несовершеннолетних нет. В районе развитая инфраструктура- дет. сады, школы, магазины, парикмахерские. Отличный вариант как для молодой семьи так и для пожилых людей. До метро Коньково 5 мин тихим шагом. Воздух - чистый озон. Оперативный показ. Документы к сделке готовы. Быстрый выход на сделку. В ДКП полная стоимость. Работаем с ипотекой и субсидиями	55.63174438	37.52655792	"Москва, улица Академика Капицы, 4, подъезд 1"
1373029367	2-к квартира, 77.6 м², 17/19 эт.	Квартиры бизнес-класса по цене комфорт от застройщика  — М. Рязанский проспект, 15 мин. пешком — В 2019 г. открытие ст. м. «Окская улица» и «Стахановская» — 8 мин. пешком до Кусковского лесопарка — Квартиры с чистовой отделкой и без — Квартиры с видами на Кусковский парк, с окном в ванной, с 2 лоджиями, спальни 2 окнами — Свой детский сад — Двор-парк без машин — Дизайнерские лобби — Ипотека от 5,9%, военная ипотека, рассрочка 0%  О жилом квартале Комфортные квартиры в старом районе Москвы в 12 мин. от 4 станций метро – это квартал «Михайлова, 31». Рядом – территория Кусковского лесопарка с усадьбами и водоёмами. В шаговой доступности метро «Рязанский проспект» и МЦК «Нижегородская», строятся «Стахановская» и «Окская». На машине 10 мин. до МКАД, 20 мин. – до ТТК, 25 мин. – до Садового. Квартиры от 29 до 97 м2 с отделкой и без, имеют вариации: с окном в ванной, с панорамой Кусково, с двумя лоджиями, с двумя окнами в спальной. В подъездах есть лобби, зона ресепшн, кладовки для колясок и велосипедов. На территории квартала детский сад на 124 места. На 1 этажах фермерские продукты, кофейня, кондитерская, йога-студия, аптека, барбершоп, химчистка, супермаркет. Подземный паркинг на 742 машиноместа оборудован лифтом. Охраняемый двор-парк состоит из лаунж-зоны, детских и спортплощадок, аллей с беседками и ландшафтных скульптур. Ничего лишнего – всё для комфорта! Принимаем звонки с 09:00 до 23:00	55.725608853907	37.774821459	"ул. Михайлова, вл. 31"
160785841	3-к квартира, 60 м², 1/9 эт.	Хозяйка сдает без посредников и комиссии 3-х комн. квар-ру, 15 мин пешком от ст м Коломенская. Высокий первый этаж с метал. решетками. Комнаты изолированные 21+11+11, 6 кв.м. Сан/узел разд. Квар-ра в хорошем состоянии, чистая. Есть вся необходимая быт. техника, посуда, постельное белье. Застекленный балкон. Домофон. Метал. дверь. Тихий двор. Только приличным клиентам.	55.68128	37.646363	"Нагатинская набережная 12 корпус 3"
1330184242	2-к квартира, 43 м², 2/5 эт.	Отличный вариант для жизни или для арендного бизнеса! Уютная двухкомнатная квартира с хорошим ремонтом (смотрите Фото). Встроенная кухня, стеллаж в гостиной, шкаф в прихожей – входят в стоимость, остальная мебель по согласованию. Каждая комната оборудована кондиционером, раздельный с/у с хорошим ремонтом, все комнаты раздельные, окна выходят в тихий двор, есть балкон, на кухне окно заменено на современный ПВХ, комфортный для жизни 3 этаж. При желании возможно приобрести смежную двухкомнатную квартиру. Чистый аккуратный подъезд, зеленый благоустроенный двор. Сложившаяся инфраструктура района: школы, детские сады, магазины, почта, сбербанк – все рядом! От метро Щелковская 12 минут пешком. Дом включен в программу реновация в 2021 году. Приватизация 2011 года, два взрослых собственника, не сложная альтернатива на Новую Москву. Ответственный специалист Крестьянко Оксана.	55.81277466	37.78117752	"Москва, Амурская улица, 38/11"
1495992231	2-к квартира, 43 м², 7/9 эт.	Свободная продажа. Один взрослый собственник. Физически и юридически свободна. Дом удобно расположен в отдалении от дорог. Зеленый, тихий двор. Шаговая доступность до двух станций метро. Чистый подъезд. Квартира требует ремонта.	55.735718	37.681709	"Москва, Малая Калитниковская улица, 9"
1329054428	4-к квартира, 135.6 м², 2/14 эт.	Номер лота: 2529707, В ЖК БИЗНЕС КЛАССА ПРОДАЕТСЯ 4 КОМНАТНАЯ КВАРТИРА !!! Успейте купить по выгодной цене !!!  КЛЮЧИ И ЗАСЕЛЕНИЕ УЖЕ В 2019 ГОДУ !!!   ЖК «ЗИЛАРТ» это новейший комплекс в престижном и развитом районе Москвы. Отличная транспортная доступность, ЖК расположен в непосредственном близости с ТТК. Пешком до станции ЗИЛ 5 минут пешком, и 15 минут до ст. метро Автозаводская и Тульская.   Почти 20 гектар в районе займут парк и пешеходная набережная. Уникальная для городской среды зеленая зона сделает ЗИЛАРТ оазисом в центре каменных джунглей столицы.  На территории ЗИЛАРТа специалисты по ландшафтному дизайну разработали великолепные садово-парковые композиции. Большие зеленые массивы парков станут идеальным местом для прогулок и занятий спортом, для этого здесь появятся спортивные и детские площадки, пункты проката велосипедов и роликовых коньков, кафе и различные развлекательные объекты.  Впервые в Москве будет построен уникальный образовательный центр. Он объединит в себе 2 детских сада и две школы, которые будут пользоваться общими спортивными объектами и инфраструктурой. Ваши дети из сада смогут пойти в современную общеобразовательную школу там же, где они провели свои первые годы жизни – все это упростит и сделает максимально комфортным обучение.  Образовательные учреждения разместятся на обособленной защищенной территории с благоустроенным школьным двором, спортивными и детскими игровыми площадками — за безопасность юных дарований можно будет не беспокоиться. Новаторский подход к обучению обещает, что именно здесь вырастут будущие поколения, которые смогут сохранить и приумножить богатое культурное и интеллектуальное наследие.  Кроме того, на территории ЗИЛАРТа будут построены еще одна школа и 11 детских садов. Вы можете не беспокоиться о том, в какое дошкольное образование или школу можно будет отправить своих детей.  Совсем рядом легко шумит вода, светит закатное солнце, а легкий ветер развивает полы вашей одежды. И все это здесь, практически у самого порога вашего дома – на набережной ЗИЛАРТа.  Прогуливаясь по пешеходным дорожкам одной из самых широких в столице набережных, вы сможете ощутить всю мощь и красоту Москвы-реки.  «Эрмитаж – Москва» поразит вас не только коллекциями современного искусства, которые Государственный Эрмитаж будет демонстрировать под сводами нового музейного центра. Само его здание будет воплощать суть современного арта. Первый дом Эрмитажа в Москве создает известный архитектор Хани Рашид, сооснователь нью-йоркской мастерской̆ Asymptote.  Заботясь о комфорте, тихие и уютные дворы от освобождены от автомобилей, разместив под каждым домом собственную подземную парковку. Ваши дети и вы сможете без опаски гулять по внутренней территории, играя и отдыхая от дневной суеты.  «ЗИЛАРТ» – это идеальный район для тех, кто ценит свой комфорт, возможности для бизнеса, творческую реализацию и вдохновение от разнообразных культурных событий.	55.69843	37.63483	"ул. Автозаводская/Архитектора Щусева, ЖК «ЗИЛАРТ»"
1532361283	5-к квартира, 138 м², 19/22 эт.	ЖК бизнес-класса ФилиЧета-2. В собственности. Полная стоимость в договоре. Свободная продажа. Чистые документы, продажа из первых рук. Предлагается блок из двух квартир 1 комнатная 47,5 кв.м. и 3 комнатная квартира 90,9 кв.м. Можно объединить в одну квартиру с возможной планировкой: кухня 14 кв.м, комнаты: 19+18+17,5+14+12,5, 2,5 сан.узла, 3 застеклённые лоджии, гардеробная комната. Из окон панорамный вид на Парк Победы и Москва Сити. Все комнаты изолированные. Стены и потолок подготовлены под чистовую отделку. Разведены розетки, выключатели, освещение, система отопления, пожарная сигнализация. Цена машино-места в подземном гараже 3000000 руб. (на 2 авто, с подъёмной системой Klaus).  На огороженной территории комплекса два жилых корпуса, круглосуточная охрана, подземная и гостевая парковка. У комплекса собственная инфраструктура: торговый центр с супермаркетом, банком, магазинами и сферами услуг; детская и спортивная площадки, в подъездах служба консьержа. До метро Филиевский парк 700 метров. В шаговой доступности парк Фили и парк Победы. Удобный выезд на Кутузовский проспект, до центра 5 минут на авто.	55.73626709	37.49363708	"Москва, 2-я Филёвская улица, 6"
1619796326	1-к квартира, 41 м², 17/22 эт.	1 мин. пешком до м. Бульвар Ушакова, Строго славян без детей Подробности по тел. Мебель установим под клиента.	55.54376984	37.53992462	"Москва, Южнобутовская улица, 10"
1243650594	5-к квартира, 89 м², 2/4 эт.	Продается 5-ти комнатная квартира. Площадь комнат: 10,5 кв.м, 10,3 кв.м, 14,8 кв.м, 12,9 кв.м, 6,5 кв.м. Площадь кухни 11,2 кв.м. Площадь ванной комнаты 10 кв.м. Дом находится на исторической улице г. Москвы, расположенной у Смоленской площади между Москвой-рекой и Садовым кольцом. Дом построен в 1917 году. Окна выходят во двор и на улицу. Деревянные перекрытия и планировки комнат позволят сделать квартиру своей мечты. Собственников 5 (взрослые), основание собственности — приватизация. Все документы собраны, быстрый выход на сделку. Альтернатива подобрана.  Наталья	55.744156	37.578406	"улица Плющиха, 16с1"
1528403799	2-к квартира, 63 м², 3/5 эт.	Прямая сдача от собственника, без комиссии. В комнатах, на кухне и коридоре паркет. Ванная и туалет - раздельные. Отличное состояние. Очень тихое место. Окна выходят во двор. Метро в пешей доступности (м.Шаболовская - 10 мин.) Рядом: детский сад, детская поликлиника, бассейн, школа, Даниловский рынок, магазины. Вода, электричество - оплата по счетчикам. Предоплата за 1 мес.	55.715047	37.617985	"Москва, Городская улица, 9"
1255871694	Сниму 2-к квартиру	продаются 1,2 и 3 комнатные кватриры,в наличии все этажи,возможна продажа по ипотеке и в рассрочку Тестовое объявление, не трогайте, читайте комментарии в инфе о юзере, объявление закроется автоматически resourcemanagergeneratestructtesttestgeneratestruct	55.778671	37.587971	"Москва, Лесная улица, 7"
1500240411	1-к квартира, 36 м², 4/16 эт.	Вашему вниманию предлагается однокомнатная квартира с качественным ЕВРО ремонтом. Вся мебель остается.  Большая дворовая территория , закрыта на шлагбаумы, ведется виделнаблюдение. Дом относится к ТСЖ. Чистый подезд с консьержем и домофоном . В шаговой доступности детские сады, школы, поликлиники, детские развивающие кружки,дом детского спорта, дом детского творчества , супермаркеты. В 7 ми минутах ходьбы расположен обустроенный сквер и пруд с детскими площадками и мангальной зоной. В 5-ти минутах хотьбы Покровский женский моностырь с мощами святой Матроны.Один взрослый собственник. Свобоная продажа. Просмотры в удобное для Вас время. Возможен Торг! Ипотека приветстуется. Возможна помощь в одобрении ипотеки.	55.735813	37.678936	"Москва, улица Талалихина, 1к3, подъезд 3"
1539218145	2-к квартира, 54 м², 8/8 эт.	Сдаётся двухкомнатная квартира в 5 минутах ходьбы от метро Курская.Рядом Курский вокзал, центр, Атриум.Комнаты изолированные.По спальным местам 2+2+2. Сдаётся от 1 суток.В квартире курить нельзя.Цена зависит от количества суток и состава проживающих.Предоставляем отчетные документы.Возможна почасовая оплата	55.755112	37.656525	"Москва, улица Земляной Вал, 38-40/15с9"
1179680041	3-к квартира, 98.5 м², 6/20 эт.	Продаю трехкомнатную квартиру в ЖК Бизнес-класса Новочеремушкинская 17. Квартира расположена на 6-м этаже 3 корпуса (секция 5). Общая площадь 98,54 кв м, есть возможность перепланировки в четырехкомнатную квартиру. Высота потолка 3,25 м в черноте, панорамные окна 2,4 метра. Под домом подземный двухуровневый паркинг, кладовые помещения, двор закрыт от машин, все окна во двор. Дизайнерские входные группы с высотой потолка в 3 корпусе 6 метров. Отличное местоположение, 10 мин пешком до м. Академическая. Срок сдачи 4 квартал 2019 года. Переуступка ДДУ от физ. лица с официальным уведомлением застройщика.	55.68286	37.58311	"ул. Новочерёмушкинская, стр. 3"
1273445584	2-к квартира, 38 м², 11/12 эт.	СКИДКИ!!Цена указана со скидкой, не распространяется на субботу!!Принимаем к оплате кредитные карты,для корпоративных клиентов безналичный расчет Предлагаем уютную 2х комнатную квартиру с хорошим ремонтом, комнаты изолированные, есть балкон. Современная кухня: новая плита, вытяжка, микроволновка, холодильник, чайник, вся необходимая посуда для приготовления и приема пищи. Ванная комната в кафельной плитке, современная сантехника. В комнатах мебель, двуспальная кровать, раскладной диван, комод, стенка. Всегда свежее постельное белье и полотенца. При себе иметь паспорт и залог в размере суточной стоимости.Цена зависит от срока аренды	55.866783	37.667429	"ул Ленская, 8к1"
1335908037	2-к квартира, 36 м², 1/9 эт.	Уютная, чистая, аккуратная двухкомнатная квартира в районе Отрадное. Вся бытовая техника и мебель имеется. Ремонт под евро. Удобная транспортная развязка (6-8 минут от метро). Рядом находится универмаги, продуктовые магазины (Пятерочка, Родной, и т.д.). Также, в шаговой доступности, кафе Арбуз и Кафе-бар. Вечером, можете провести досуг в караоке Рай, который находится от дома совсем близко. Банки, фитнес-центры находятся в 150-200 метров от дома.При заселении иметь при себе паспорт и залоговую сумму в размере суточного проживания.   Цена зависит от срока аренды.	55.859838	37.611456	"Москва, проезд Якушкина, 8"
1338275423	1-к квартира, 35 м², 1/12 эт.	Предлагаем посуточно и ПОЧАСОВО, уютную квартиру, буквально в двух шагах от метро. Оснащена всем необходимым для комфортного проживания, бытовая техника, вай-фай, всегда свежее постельное белье и полотенца,тапочки. Развитая инфраструктура - кафе, магазины, ТРЦ, круглосуточные продуктовые магазины, аптеки, салоны красоты и многое другое.При заселении иметь при себе паспорт и залоговую сумму в размере суточной аренды.    Поздний заезд(после 22:00) и ранний выезд(до 9:00) оплачивается дополнительно в размере 500(пятисот) рублей.	55.85057	37.656308	"ул Амундсена, 5"
1392535229	1-к квартира, 34 м², 6/9 эт.	Квартира светлая, чистая и современная, обставлена добротной мебелью. А также производится тщательная и качественная уборка перед заездом. Для каждого гостя свежее постельное белье, полотенца, тапочки и средства личной гигиены. В кухне есть необходимый набор посуды и приборов для приготовления и приема пищи. При себе иметь паспорт и залог в размере суточной стоимости.Цена зависит от срока аренды .	55.792999	37.594701	"ул Сущёвский Вал 13к1"
1410190277	2-к квартира, 60 м², 17/22 эт.	Уютная двухкомнатная квартира в пешей доступности от метро Медведково. Квартира после капитального ремонта, выполненного в светлых тонах. В спальня большая двуспальная кровать с ортопедическим матрасом, встроенный шкаф. Гостиная оснащена выходом на просторную застекленную лоджию, большой диван, который раскладывается в комфортное спальное место для двоих человек, журнальный столик, тв и вай-фай. Кухня оборудована для приготовления и приема пищи. Санузел раздельный в кафельной плитке, новая немецкая сантехника. Индивидуальные гостиничные наборы, постельное белье, полотенца.	55.886581	37.654613	"Москва, Заревый проезд, 15к2"
1509971219	3-к квартира, 156 м², 7/18 эт.	Арт. 5340540 Архитектурный облик этого дома отличает простота и лаконичность. Отделка вестибюлей и лестничных холлов осуществляется по оригинальному дизайну с использованием высококачественных материалов. Вашему вниманию представлена просторная 3х- комнатная квартира с авторским ремонтом. Частично меблирована, обсуждается вывоз или докупка под клиента. Все комнаты в квартире изолированы. 2 санузла. Гардеробная. Полный комплект бытовой техники от ведущих производителей. Машиноместо обязательно входит в стоимость! Оперативный показ!	55.714039	37.524624	"Мичуринский пр-кт, 6к2"
1521941959	1-к квартира, 32 м², 1/5 эт.	!Предлагаем очень уютную квартиру в пешей доступности от метро ВДНХ. Современная мебель и качественный ремонт, все для вашего комфортного размещения: бытовая техника, Вай-фай, свежее постельное белье и полотенца, посуда, микроволновка,холодильник. Предоставляем отчетные документы. Рядом три продуктовых магазина, аптеки, салоны и ВВЦ! При заселении иметь паспорт и залог в размере суточной аренды.   Цена зависит от срока проживания.	55.815666	37.652364	"ул Кибальчича, 12к1"
1152503494	1-к квартира, 38 м², 9/14 эт.	Добро пожаловать в уютную однокомнатную квартиру по улице Енисейская расположенную в 2-х минутах от станции метро Бабушкинская. Удобная кровать, Wi-Fi, вся необходимая бытовая техника для комфортного проживания. Всегда чистое и свежее постельное белье и полотенца, а также туалетные принадлежности. Вы сможете посетить большое количество магазинов, кинотеатров, а также находящиеся рядом рестораны, клубы, кафе.	55.868688	37.662515	"ул Енисейская, 19"
1233686201	2-к квартира, 35 м², 5/14 эт.	При заселении каждому гостю предоставляется индивидуальный гостиничный набор БЕСПЛАТНО(тапочки, гель для душа, шампунь и мыло).  Уютная двухкомнатная квартира в пешей доступности от метро Медведково. Квартира после капитального ремонта, выполненного в светлых тонах. В спальне большая двуспальная кровать с ортопедическим матрасом, встроенный шкаф. Гостиная оснащена выходом на просторную застекленную лоджию, большой диван, который раскладывается в комфортное спальное место для двоих человек, журнальный столик, тв и вай-фай. Кухня оборудована для приготовления и приема пищи. Санузел раздельный в кафельной плитке, новая немецкая сантехника. Индивидуальные гостиничные наборы, постельное белье, полотенца.	55.888377	37.672765	"ул Широкая, 23к1"
1094323307	1-к квартира, 36 м², 3/9 эт.	При заселении каждому гостю предоставляется индивидуальный гостиничный набор БЕСПЛАТНО (тапочки, зубная щетка и паста, гель для душа, шампунь и мыло).  Рады будем предложить вам оптимальный вариант "цены и качества"! Предлагаем посуточно и ПОЧАСОВО, уютную квартирку, в пешей доступности от метро. Оснащена всем необходимым для комфортного проживания, бытовая техника, вай-фай, всегда свежее постельное белье и полотенца. Развитая инфраструктура - кафе, магазины, ТРЦ, круглосуточные продуктовые магазины, аптеки, салоны красоты и многое другое. ЗАСЕЛЕНИЕ В ЛЮБОЕ ВРЕМЯ СУТОК.	55.869657	37.610009	"ул Бестужевых, 12Г"
1439928947	Студия, 45 м², 12/14 эт.	Фотографии полностью соответствуют действительности. Комиссии нет. При заселении нужно иметь паспорт и залоговую сумму в размере суточного проживания.   Поздний заезд(после 22:00) и ранний выезд(до 9:00) оплачивается дополнительно в размере 200(двухсот) рублей.  При заселении каждому гостю предоставляется индивидуальный гостиничный набор БЕСПЛАТНО (тапочки, зубная щетка и паста, гель для душа, шампунь и мыло).  Уютная, светлая однокомнатная квартира-студия в жилом комплексе рядом со станцией М. Дмитровская. Свежий ремонт и новая мебель создают домашнюю атмосферу комфорта и уюта. Кухня-студия соединена с гостиной. Есть балкон, вид которого выходит на Останкинскую Телебашню. Квартира отлично подходит для семейной пары, командировочных, и маломобильных людей. В доме есть два лифта (пассажирский и грузовой).   Что расположено поблизости от дома?   От центра пешком около 8-12 минут. Поблизости – Гончаровский парк, театр «Театр Без Границ», музеи «Люмьер Холл», «Музей техники Apple» и многое другое. Также, в шаговой доступности, супермаркеты, рестораны, кафе. Удобная транспортная развязка (7 минут от метро).	55.809368	37.588449	"ул Проезд Добролюбова д11"
1300668461	1-к квартира, 35 м², 1/5 эт.	Фотографии полностью соответствуют действительности. Комиссии нет. При заселении нужно иметь паспорт и залоговую сумму в размере суточного проживания  Скромная однокомнатная квартира в шаговой доступности от метро Алтуфьево. Отличный вариант для людей с ограниченным бюджетом, семейной пары с детьми, и гостей Столицы. В квартире есть все удобства для комфортного проживания.  Что расположено поблизости от дома?   Удобная транспортная развязка (5 минут от метро и от автобусной остановки). Рядом супермаркеты "Виктория" и "Перекресток", офис "Сбербанка", рестораны и ТЦ "Ареал".   Что есть в квартире?   1) В гостиной диван-кровать и кресло (3 спальных мест). Большой шкаф-купе. Из бытовой техники телевизор, утюг (и гладильные принадлежности), обогреватель.  2) Кухня оснащена гарнитуром и обеденным столом со стульями. Бытовая техника также имеется (плита, духовка, микроволновка, электрический чайник). Комплект посуды рассчитан на троих человек.  3) В ванной есть вся необходимая сантехника, а также стиральная машина, полотенца, одноразовые тапочки.	55.811149	37.6494	"ул Новоалексеевская, 19к1"
1405150743	1-к квартира, 47 м², 2/16 эт.	При заселении каждому гостю предоставляется индивидуальный гостиничный набор БЕСПЛАТНО(тапочки, гель для душа, шампунь и мыло).  Фотографии полностью соответствуют действительности. Комиссии нет. При заселении нужно иметь паспорт и залоговую сумму в размере суточного проживания.  Поздний заезд(после 22:00) и ранний выезд(до 9:00) оплачивается дополнительно в размере 500(пятисот) рублей.  Скромная однокомнатная квартира в шаговой доступности от метро Алтуфьево. Отличный вариант для людей с ограниченным бюджетом, семейной пары с детьми, и гостей Столицы. В квартире есть все удобства для комфортного проживания.  Что есть в квартире?   1) В гостиной диван-кровать и кресло (3 спальных мест). Большой шкаф-купе. Из бытовой техники телевизор, утюг (и гладильные принадлежности), обогреватель.  2) Кухня оснащена гарнитуром и обеденным столом со стульями. Бытовая техника также имеется (плита, духовка, микроволновка, электрический чайник). Комплект посуды рассчитан на троих человек.  3) В ванной есть вся необходимая сантехника, а также стиральная машина, полотенца, одноразовые тапочки.	55.89982	37.580759	"ул Новгородская, 22"
962324933	1-к квартира, 36 м², 3/5 эт.	Фотографии полностью соответствуют действительности. Комиссии нет. При заселении нужно иметь паспорт и залоговую сумму в размере суточного проживания.  При заселении каждому гостю предоставляется индивидуальный гостиничный набор БЕСПЛАТНО (тапочки, гель для душа, шампунь и мыло).  Уютная 1-комнатная квартира по адресу 1-й Саратовский проезд, дом 4 (в шаговой доступности от станции метро Текстильщики). Это оптимальный вариант для семейной пары, людей с ограниченными возможностями, туристов и гостей Столицы.   Что есть в квартире?  1) В гостиной стоит диван-кровать, шкаф. На полу теплый паркет. Есть телевизор и компьютерный стол.   2) На кухне – плита с духовкой, холодильник, микроволновка, электрочайник. Из мебели стулья и обеденный стол.   3) В ванной новая сантехника, а также стиральная машина. Полотенца, одноразовые тапочки входят в стоимость проживания.Цена зависит от срока аренды.	55.711823	37.733949	"первый Саратовский проезд, 4"
1477174300	1-к квартира, 34 м², 3/5 эт.	Фотографии полностью соответствуют действительности. Комиссии нет. При заселении нужно иметь паспорт и залоговую сумму в размере суточного проживания.  При заселении каждому гостю предоставляется индивидуальный гостиничный набор БЕСПЛАТНО (тапочки, гель для душа, шампунь и мыло).  Отличная квартира по соотношению цена/качества. Идеально подходит для коммандировочных, семейной пары с детьми, гостей Столицы. В квартире есть вай фай и все удобства для комфортного проживания.	55.796764	37.583023	"ул Бутырская, 19"
1506113812	1-к квартира, 25 м², 1/5 эт.	При заселении каждому гостю предоставляется индивидуальный гостиничный набор БЕСПЛАТНО (тапочки,гель для душа, шампунь и мыло).  Предлагаем вам уютную квартиру (гостинку)в пешей доступности от метро Бабушкинская ( всего 3 минуты). В квартирке, несмотря на ее небольшие габариты, есть все необходимое для комфортного проживания: двуспальная кровать, ТВ, вай-фай, ванна, полностью оборудованная кухня. Перед каждым заездом производится тщательная уборка и обработка помещения, также предоставляется постельное белье, полотенца и тапочки, все гостиничного стандарта, из профессиональной прачечной в индивидуальной вакуумной упаковке. Для командировочных предоставляем отчетные документы. При заселении просим вас предоставить паспорт (обязательно!), если вы прибываете с детьми, также необходимы документы подтверждающие ваше родство или опекунство. Будем рады предложить вам комфортное размещение, сочетая домашний уют и комфорт отеля.	55.867364	37.670762	"ул Менжинского, 17к2"
1023094946	3-к квартира, 65.1 м², 9/9 эт.	Просторная трехкомнатная квартира-распашонка с изолированными комнатами, кухня 8,1 кв.м., есть кладовка, большая застекленная лоджия. Нормальное жилое состояние, установлены новые ПВХ окна и биметаллические радиаторы отопления, в ванной новая сантехника и отделочная плитка на стенах и на полу, в прихожей новая плитка на полу, в кухне стеклокерамическая электроплита. Чистый подъезд. Не сложная альтернатива на одну площадь. Полная стоимость в договоре, один собственник.	55.780765	37.830288	"Москва, улица Чечулина, 18"
1513323758	1-к квартира, 28 м², 4/9 эт.	Добро пожаловать в уютную однокомнатную квартиру по улице Б.Марьинская расположенную в 2-х минутах от станции метро Алексеевская. Удобная кровать, Wi-Fi, вся необходимая бытовая техника для комфортного проживания. Всегда чистое и свежее постельное белье и полотенца, а также туалетные принадлежности. Вы сможете посетить большое количество магазинов, кинотеатров, а также находящиеся рядом рестораны, клубы, кафе. Предоставляем отчетные документы. Мы всегда рады видеть Вас! При себе иметь паспорт и залог в размере суточной стоимости.Цена зависит от срока аренды	55.808776	37.634065	"ул Большая Марьинская, 19"
1522553660	1-к квартира, 45 м², 1/12 эт.	Фотографии полностью соответствуют действительности. Комиссии нет. При заселении нужно иметь паспорт и залоговую сумму в размере суточного проживания.  Скромная однокомнатная квартира в шаговой доступности от метро Алтуфьево. Отличный вариант для людей с ограниченным бюджетом, семейной пары с детьми, и гостей Столицы. В квартире есть все удобства для комфортного проживания.  Что расположено поблизости от дома?   Удобная транспортная развязка (5 минут от метро и от автобусной остановки). Рядом супермаркеты "Виктория" и "Перекресток", офис "Сбербанка", рестораны и ТЦ "Ареал".   Что есть в квартире?   1) В гостиной диван-кровать и кресло . Большой шкаф-купе. Из бытовой техники телевизор, утюг (и гладильные принадлежности), обогреватель.  2) Кухня оснащена гарнитуром и обеденным столом со стульями. Бытовая техника также имеется (плита, духовка, микроволновка, электрический чайник). Комплект посуды рассчитан на троих человек.  3) В ванной есть вся необходимая сантехника, а также стиральная машина, полотенца, одноразовые тапочки.	55.904357	37.578855	"ул Новгородская 31"
936136664	Студия, 35 м², 5/12 эт.	Уютная однокомнатная квартира в пешей доступности от метро Пролетарская. В квартире имеется все необходимое: кабельное TV, бесплатный Wifi, микроволновая печь, стиральная машинка, утюг, вся необходимая мебель для комфортного размещения.    Для вашего комфорта, белоснежное белье, махровые полотенца, одноразовые шампунь, гель для душа, тапочки.	55.728494	37.676403	"Волгоградский пр-кт, 18"
1487646224	3-к квартира, 63 м², 3/5 эт.	Замечательная, просторная 3-х комнатная квартира 63 кв.м., удачной планировки на 3 этаже в 5-и этажном кирпичном Сталинском доме. Две изолированные комнаты-спальни (14 +11 кв.м.) , гостиная 15 кв.м. объединена с квадратной кухней 8,6 кв.м., просторная ванная комната с окном, потолки 3,10 м,.Качественный ремонт , новые радиаторы, сантехника,, есть подсобное помещение Квартира очень теплая, чистый подъезд, во дворе есть места для парковки. Окна спален выходят во двор, гостиной и ванны на тихую улицу. Развитая инфраструктура, очень зеленый уютный двор с детской площадкой, рядом школа, магазины. За 10 минут можно доехать общественным транспортом до станций метро Молодежная, Кунцевская или дойти пешком ,расстояние до метро 2 км. В 2-х минутах ходьбы платформа Рабочий поселок,с которой можно доехать за 15 мин до м.Белорусская, Более 10 лет в собственности. Возможен обмен на однокомнатную или двухкомнатную квартиру в ЗАО, ЦАО с Вашей доплатой	55.726158	37.417704	"Москва, улица Маршала Неделина"
1386415918	2-к квартира, 75 м², 77/97 эт.	Номер лота: 1905473, Продается 2-х комнатная квартира в Москва Сити.   Это Город Столиц — Башня Федерации. От метро Деловой центр 5 минут пешком.   Уютная планировка светлой квартиры. Потрясающий вид из окон на Москву!!!	55.749511	37.537083	"Пресненская набережная, 12"
1161098599	2-к квартира, 68.5 м², 10/17 эт.	Современный кирпично-монолитный дом (2002 г.), в пяти минутах станция МЦК "СОКОЛИНАЯ ГОРА", в тихом благоустроенном дворе, через дорогу - парк. Район с хорошо развитой инфраструктурой. В доме подземная парковка, в подъезде - консьерж. Окна на юго-запад. Большая кухня, два с/уз, большой (10,4 м) хол, потолки - 2,72 м, лоджия, эркер. Квартира свободна.	55.7672159322	37.740060047	"Россия, Москва, 8-я улица Соколиной Горы, 20к1"
1119854317	2-к квартира, 45 м², 5/12 эт.	Удобные апартаменты в 5 минутах ходьбы от м. Шелепиха и одна остановка до м. Выставочная, Деловой Центр и Международная. В пешей доступности от Москва-Сити, Экспоцентра , Центра международной торговли.  Имеют 2 отдельные комнаты – зал с диваном-кроватью и спальню с двуспальной кроватью, кухню, ванную и с/у раздельный. Парковка бесплатная. Есть телевизор с кабельными каналами и бесплатный Wi-Fi стиральная машина, микроволновая печь, утюг, электрический чайник, утюг, сушилка для белья. Для вашего удобства мы предоставляем постельное белье, полотенца, мыло, шампунь, туалетную бумагу. Стоимость зависит от кол-ва дней проживания. 3000 р от 10 суток для 2 чел. В дни выставок - уточняйте стоимость. Гарантийный депозит - 3000р, мы его вернем в день выезда.	55.758564	37.518928	"Шелепихинское шоссе, 17к3"
1031533453	4-к квартира, 98 м², 5/5 эт.	Продаю очень красивую, стильную 4-х к-ю квартиру (98 кв.м) с функциональной перепланировкой в кирпичном сталинском доме (высота потолка 3 м). Квартира вложений не требует! Выполнен новый капитальный ремонт по современному дизайн-проекту и только из качественных материалов. Произведена замена абсолютно всего, включая коммуникации, полы, меж комнатные перегородки, окна и т.д. Дополнительно выполнена шумоизоляция от соседей и гидроизоляция кровли над квартирой. Перепланировка квартиры узаконена!! Укомплектована всей необходимой новой дорогой бытовой техникой и мебелью, все остается. Просторная кухня-гостиная, переходящая в холл (24,5+17,1 кв.м), три изолированные комнаты, две гардеробные, огромный санузел (7,5 кв.м), два застекленных балкона. Подъезд чистый, после ремонта. Удачное расположение дома - уютное тихое место, но при этом отличная транспортная доступность. Проблем с парковкой рядом с домом - нет! Район с развитой инфраструктурой - абсолютно все в шаговой доступности! Продаю сам - один собственник (более 3-х лет), никто не прописан, продажа - свободная. Показ в любое время по предварительной договоренности. Реальному покупателю - разумный торг!	55.735794	37.493174	"ул. 2-я Филевская, д. 3"
1613970284	2-к квартира, 63 м², 3/5 эт.	Собственник продает квартиру. Свободна, никто не прописан. Во всех комнатах, на кухне и коридоре паркет. Тихое место, окна во двор. Балкон. Метро Шаболовская, Тульская в пешей доступности (10 мин.). Рядом: бассейн, дет.сад, школа, дет.поликлиника, магазины, Даниловский рынок, парки.	55.715047	37.617985	"Москва, Городская улица, 9"
1054338396	3-к квартира, 73.2 м², 11/22 эт.	Современный жилой комплекс комфорт - класса на северо-востоке Москвы, вблизи парка Лосиный Остров. Авторская архитектура, детский сад и школа на территории, прекрасная инфраструктура района. В состав проекта войдут 4 жилых корпуса, в том числе блок апартаментов. Объект проектируется с учетом размещения подземной автостоянки, встроенных помещений коммерческого назначения. Комфорт и безопасность жителям комплекса обеспечат закрытые охраняемые дворы без автотранспорта. На территории расположатся детские и спортивные площадки по оригинальным проектам, арт - объекты, благоустроенные зеленые зоны отдыха с цветниками. Яркая авторская архитектура от проектного бюро «SPEECH» позволит Жилому комплексу стать в ряд с самыми интересными новостройками столицы. Закрытые охраняемые дворы, оригинальные проекты благоустройства. Рядом благоустроенная набережная р. Яузы, Джамгаровские пруды. Прекрасная транспортная и пешеходная доступность, развитая социально-бытовая инфраструктура района. Рассматриваем все варианты оплаты, помощь в одобрении ипотеки. Подробнее об объектах и ценах узнавайте у менеджера!Принимаем в зачет Ваше вторичное жилье!	55.882535299202	37.681654708984	"ул. Тайнинская, стр. 3"
1594490188	2-к квартира, 58 м², 17/17 эт.	Продается 2 комн. квартира, Северное Бутово, м. Бульвар Дмитрия Донского, менее 5 минут пеш. до метро, Бульвар Дмитрия Донского, дом. 12, 17/17П (есть техэтаж), серия П-44, площадь общ. 58м2 (без учета лоджии), комнаты изолированы 19м2 и 15м2, лоджия, требует косметич. ремонта. Шикарный вид из окна во двор и на лес. Развитая инфраструктура, 2 школы и детские сады, ФОК, парк, бассейн, продуктовые магазины и др. в шаговой доступности. Более 15 лет в собственности, один взрослый собственник (он же прописан);, несложная альтернатива (варианты уже просматриваются). Оперативный показ в любое удобное время.	55.56566238	37.57250595	"Москва, бульвар Дмитрия Донского, 12"
1255200654	3-к квартира, 68 м², 2/12 эт.	Трехкомнатная квартира, после косметического ремонта. Квартира оборудована всей бытовой техникой: посудомоечная машина, микроволновая печь, два телевизора. Санузел раздельный. Квартира сдается в первый раз. Возможно   заселение граждан СНГ (в количестве 10 человек). Так же возможно заселение с животными.	55.857437	37.411921	"улица Героев Панфиловцев, 22к1"
1099166036	2-к квартира, 59 м², 4/12 эт.	Собственник. В услугах посредников НЕ нуждаюсь, риелторы и агентства - МИМО, продаем сами, помощь в продаже не нужна!  Продается шикарная 2-хкомнатная квартира в 10 минутах пешком от м. Братиславская. Квартира после капитального ремонта, который был произведен в конце 2017 года (меняли всю проводку, канализацию, окна, произвели отделочные работы), все делали под себя, ни на чем не экономили. Квартира свежая, чистая, очень уютная. Продавать не планировали, но в связи с пополнением в семье нам стало тесно, будем расширяться. Заезжай и живи! Все сделано на совесть. Не потребуется никаких вложений в ближайшие минимум 15 лет.  Площадь квартиры 59 м2. На окнах и балконе установлены современные 3-камерные стеклопакеты Rehau, в квартире зимой очень тепло, слишимость с улицы минимальная. Для знойного лета или феноменальных морозов предусмотрена сплит-система (работает и на охлаждение, и на обогрев).  2 комнаты: 15 и 16 м2, кухня-гостиная 11м2. Светлый санузел, испанская премиальная плитка, европейская сантехника. Квартира продается со встроенными шкафами, кондиционером.  Возможна продажа с мебелью и техникой, все обсуждаемо.  1 взрослый собственник с 2003 года.  Легкая альтернатива на квартиру в новостройке.  Просмотры по предварительной договоренности. Звоните строго до 21:00.   Количество собственников: 1 Год постройки: 2000 Покрытие пола: ламинат Балкон: балкон Возможна ипотека	55.663486	37.765363	"Москва, Перервинский бульвар, 3"
1582115456	3-к квартира, 82 м², 5/24 эт.	В прекрасном районе Москворечье-Сабурово продаётся 3х-комнатная квартира, общей площадью 82 кв.м. Квартира отличной планировки на 5 этаже. Окна на две стороны.  Жилая площадь 50 кв.м, просторная кухня 15 кв.м, меблированная шикарной кухонной мебелью, в квартире качественный ремонт, стеклопакеты, ламинат. Квартира в доме постройки 2008 года, 1 собственник. Лёгкая альтернатива, варианты подобраны. Возможна ипотека. Помощь в её оформлении, преференции от многих банков по этой квартире.	55.643404	37.654772	"ул Москворечье, 4к6"
1565413417	1-к квартира, 39.4 м², 12/22 эт.	Наши операторы работают 24 часа в сутки без праздников и выходных! Звоните в любое время дня и ночи!   При приобретении машиноместа предоставляется скидка на сумму 3%, полученную от стоимости квартиры, приобретаемой клиентом в рамках текущего месяца. Скидка действует при 100% оплате и ипотеке.   Клиенту, имеющему временную/постоянную регистрацию за пределами Москвы и Московской области либо снятому с регистрационного учета за пределами Москвы и Московской области не более чем 3 месяца назад, предоставляется скидка 50 000 рублей на приобретение квартиры или коммерческого помещения при соблюдении одного из условий:    1) предоставить копию железнодорожного или авиабилетов с подтверждением дат приезда для проведения сделки,    2) при оформлении сделки через региональное агентство недвижимости/партнера обязательно предоставить подписанный с клиентом акт-регистрацию. Возможно суммирование с другими акциями и скидками.   Жилой комплекс будет состоять из 8 корпусов комфорт-класса и корпуса бизнес-класса переменной этажности (до 25 этажей) с подземными парковками. На территории будут построены 2 школы на 825 мест каждая; 2 отдельно расположенных детских сада на 250 мест каждый; 2 встроенно-пристроенных детских сада на 150 мест каждый.   Всего 300 метров от новой станции метро Калининско-Солнцевской линии до жилого комплекса.   Возможна ипотека или рассрочка!   Есть квартиры на других этажах и корпусах.    Уточняйте по телефону.	55.646548677943	37.386557642853	"ул. Производственная, вл. 6, корп. 3"
1126880484	3-к квартира, 76.8 м², 18/18 эт.	Номер лота: 1945817, НИКТО НЕ ХОДИТ ПО ВАШИМ ГОЛОВАМ (18/18)!   Просторная трехкомнатная квартира с изолированными комнатами для комфортного отдыха. Большой холл позволяет сделать уютную гостиную для приема гостей. Планировка квартиры очень удачна, вся площадь помещений используется по максимуму. Технический этаж избавит вас от возможных проблем с крышей. Ремонт, сделанный 1,5 года назад позволит на несколько лет расслабиться и жить, не думая о технических проблемах и внешнем состоянии квартиры.    В наличии все средства коммуникации: кабельное ТВ, интернет. Кондиционер позволит насладиться прохладой в жаркое лето.    Дом находится в районе с хорошей транспортной доступностью, обеспечивая удобными дорожными развязками, а также удобными выездами на основные магистрали города: Можайское шоссе, Аминьевское шоссе, Кутузовский проспект, Рублевское шоссе, МКАД.   Район очень комфортен для проживания: в непосредственной близости от дома находится поликлиника (детская, взрослая), детский сад, школы (начальная, средняя, старшая), до которых идти 3-5 минут пешком, что значительно экономит время и нервы родителям, продуктовый магазин сети «БИМ», «Магнит», «Пятерочка», аптека, салон красоты.    Не забудем и о торгово/развлекательных центрах: Гипермаркет Ашан, Вегас Кунцево, Кунцево Плаза.   Вечером после рабочего дня можно насладиться досугом на территории парка с прудом, беговыми дорожками, детскими площадками, а летом кинотеатром под открытым небом.   В цену квартиры включен кухонный гарнитур, который еще не один год прослужит Вам верой и правдой. Также встроенная мебель.   Легкая альтернатива. Возможно использование разных схем оплаты, включая ипотеку. 2 взрослых собственника. ДКП 2016 года/полная стоимость в договоре. Звоните и принимайте решение!	55.70988	37.393281	"Беловежская улица, 55"
1677204267	2-к квартира, 54 м², 4/14 эт.	Сдаётся большая двухкомнатная чистая, тёплая и уютная квартира. От метро Выхино 5 минут пешком. Рязанский проспект д.76/2.  4 этаж / 14 этажного дома. Общая площадь 54 м2 Комнаты 20 +15 (изолированные), большая кухня 10м2. С/У раздельный. Большой коридор. Квартира в хорошем состоянии. Есть вся мебель и бытовая техника(холодильник, 2 телевизора, стиральная машина). Окна выходят во двор. Отличный дом, чистый подъезд. Тихие соседи. Сдаётся на длительный срок Россиянам. Можно с детьми. Оплата месяц + вода и свет по счетчикам. Оплата первый и последний месяц(можно разбить).  Агент. Комиссия 60%	55.71105576	37.81661987	"Москва, Рязанский проспект, 76/2"
1345384626	2-к квартира, 56.5 м², 6/16 эт.	Квартира в жилом комплексе элит-класса "Egodom", продается с машиноместом, которое входит в стоимость. Комплекс сдан в эксплуатацию в 3-м квартале 2017 года. Дома построены по монолитно-кирпичной технологии с 3хуровневым подземным паркингом. Высокий уровень безопасности, собственная огороженная и охраняемая территория, современные системы видеонаблюдения, консьерж-сервис. Территория двора озеленена, к вашим услугам ресторан авторской кухни, торговая галерея, SPA салон, детские площадки, детский сад, зона с мангалами, СПА-салон, библиотеки в холлах, кафе, автомойка, шиномонтаж. В квартире можно спроектировать кухню-гостиную, спальню, гардеробную, 2 санузла, возможно присоединение лоджии к кухне-гостиной. Огромные панорамные окна с видом на парк Сокольники. Через 2 месяца будет оформлена собственность, сейчас продажа по уступке права.	55.810453763673	37.653983288361	"ул. Новоалексеевская, Корпус А"
1307276362	1-к квартира, 39 м², 8/12 эт.	Сдается очень чистая 1-комнатная кв-ра. После косметического ремонта. Рядом находится фитнес-центр с бассейном. В квартире есть вся необходимая мебель и бытовая техника. Проведен скоростной интернет. Есть кондиционер. Телевизор. В вашем распоряжении чистое постельное белье, полотенца, тапочки. На кухне всегда в наличии чай и сахар. Скидки при аренде более 3-х суток. Заселение в любое время. Время выезда в день окончания аренды определяется в соответствии с Вашими пожеланиями. Возможно предварительное бронирование. После 21:00 дополнительные скидки. Если будет необходимость, встретим у станции метро.Звоните, сделаем все, чтобы ваше проживание было комфортным.	55.810167	37.651047	"Москва, Новоалексеевская улица, 18к1"
1273775742	Сниму 1-к квартиру	Снять квартиру на длительный срок. Семья славяне. 2 человек. Платеже способные аккуратные чистоплотные. Не шумные. Без животных.	55.887473	37.661527	"Москва, Калужско-Рижская линия, метро Медведково"
1316377871	1-к квартира, 35 м², 6/9 эт.	К продаже предлагается однокомнатная квартира.Дом расположен в пешей доступности от двух станций метро,в тихом дворе.Огороженная территория,шлагбаум.В доме недавно произведен капитальный ремонт вплоть до замены всех коммуникаций.Развитая инфраструктура.Квартира в хорошем состоянии.Окна стеклопакеты,полы ламинат,чистая и уютная.В комнате шкаф с выдвижной кроватью,мягкий уголок.Сан.узел совмещен,выполнен из природного камня,ванна массажная.Кухня встроенная,включая посудомоечную машину,кондиционер.Вся мебель остается.Заходи и живи.Чистый подьезд.Один взрослый собственник,быстрый выход на сделку.Подробности по телефону.	55.77383423	37.67357635	"Москва, Нижняя Красносельская улица, 44"
1521919398	3-к квартира, 78.4 м², 5/16 эт.	Квартира с чистовой отделкой ___________________________ Преимущества квартиры №72/корп.А:  - лоджия - подземный паркинг - видеонаблюдение за территорией и парковкой ___________________________  О доме:  Опорой стиля дома является актуальная классика, но особый акцент в архитектурном решении здания сделан на лёгкость и изящество линий. Светлые цвета в керамо-гранитной отделке жилого комплекса и высокие окна придают зданию современное настроение, сохраняя при этом общую атмосферу тепла и уюта. 1 ГА благоустроенной тер-ии + 2540 м2 площадок для спорта, игр и отдыха. Закрытая охраняемая территория, концепция Двор без машин, дополнительный гостевой паркинг. Жилой комплекс располагается в 700 м от м. Аэропорт. Скоро открытие станции м. ЦСКА. До ближайшей автобусной остановки 5 мин. пешком. Хорошая экологическая обстановка благодаря обилию зелени. Есть скверы и парки, благодаря чему тут и много возможностей для отдыха. До Кремля - 15 мин. ТТК - 8 мин. Садовое кольцо - 10 мин.   С уважением, Менеджер отдела продаж Дарья	55.79567	37.52741	"ул. Викторенко, вл. 11, 2 оч."
1603697550	2-к квартира, 45.3 м², 4/14 эт.	Отличная двухкомнатная квартира в шаговой доступности от открывающейся станции метро Юго-Восточная (1-ый квартал 2019 года). Квартира с двумя изолированными комнатами, раздельным санузлом, огромной застекленной лоджией. Квартира в пригодном для жилья состоянии, можно заехать и жить.  Пакет документов собран и готов для любой сделки: ипотека, субсидии, сертификаты. Квартира в собственности у одного взрослого собственника, ДКП более 3 лет. Отличное предложение для покупки! Звоните! Приходите! Покупайте!	55.69414139	37.8171196	"Москва, Ферганский проезд, 14к3, подъезд 1"
1146113205	3-к квартира, 107.1 м², 9/17 эт.	КВАРТИРА С ВИДОМ НА Р.ЯУЗУ В ДОМЕ БИЗНЕС ПРЕМИУМ-КЛАССА В ИСТОРИЧЕСКОЙ МОСКВЕ, ПО ДОСТУПНОЙ ЦЕНЕ!!! СРОК СДАЧИ 2 КВАРТАЛ 2019 ГОДА!!! ВСЕ ПОДРОБНОСТИ ПО ТЕЛЕФОНУ!!! СКИДКА 6% ОТ ЦЕНЫ УКАЗАННОЙ В ОБЪЯВЛЕНИИ!!! Жилой комплекс премиум-класса находится в сердце столицы – в ЦАО, в Басманном районе Москвы, между Рубцовской набережной и Большой Почтовой улицей. Квартал расположен недалеко от метро Бауманская и в пешей доступности от метро Электрозаводская. Общая площадь комплекса — 113 789,4кв.м. Площадь застройки комплекса — 14 671,9кв.м. Это комфортный и тщательно продуманный жилой комплекс для тех, кто ценит высокий уровень комфорта и качество жизни. Дом бизнес класса. Квартира без отделки. Базовая комплектация квартиры включает работы по установке металлических входных дверей повышенной прочности, современных оконных и балконных блоков с энергоэффективными стеклопакетами, приборов учета и системы отопления. Входные группы с эффектным внешним оформлением, выполненные в соответствии с концепцией проекта. Перед подъездами работают камеры видеонаблюдения, а внутри предусмотрены кабины консьержей. Пассажирские лифты повышенной комфортности с возможностью спуска в паркинг, есть вместительные ниши для хранения колясок и сезонного имущества, присутствует специальное оборудование для удобства маломобильных жильцов и посетителей квартала. Насыщенная инфраструктура, разнообразие архитектурных решений, ландшафтный дизайн и собственный пешеходный бульвар. Здесь есть все для яркой и комфортной жизни, работы, творчества и воспитания детей. Подземный паркинг на 610 м/м. Для удобства горожан Правительством Москвы планируется построить новый пешеходный мост через реку Яузу, соединяющий новый жилой комплекс, Рубцовскую и Семеновскую набережные.    СКИДКА 6%   Исторический район,    ЦАО Москвы.   Первая линия набережной реки Яуза.   Охраняемая территория и консьерж-служба.   Небольшая плотность застройки   Высокая стадия готовности    Шаговая доступность до метро    Инфраструктура. Собственный детский сад, торгово-офисные комплексы, рестораны и кафе, а также галереи, творческие студии и арт- пространства для работы и отдыха.   Безопасность. Все входные группы жилых корпусов оборудованы видеодомофонной связью и системой контроля доступа, работает консьерж-служба.   Пешеходный мост. Для удобства жителей Правительством Москвы планируется построить новый пешеходный мост через реку Яузу   Отдых и прогулки. Собственный широкий зеленый бульвар, площадки для отдыха, пешеходные и велосипедные дорожки.   ИПОТЕКА С МИНИМАЛЬНОЙ СТАВКОЙ ОТ 9,2%  БОЛЕЕ ПОДРОБНУЮ ИНФОРМАЦИЮ ВЫ МОЖЕТЕ УЗНАТЬ ПОЗВОНИВ ПО УКАЗАННОМУ ТЕЛЕФОНУ!!!	55.778993	37.701403	"Центральный административный округ, к12"
1187174273	3-к квартира, 86.5 м², 2/12 эт.	КВАРТИРА В ДОМЕ БИЗНЕС ПРЕМИУМ-КЛАССА В ИСТОРИЧЕСКОЙ МОСКВЕ, ПО ДОСТУПНОЙ ЦЕНЕ!!! СРОК СДАЧИ 2 КВАРТАЛ 2019 ГОДА!!! ВСЕ ПОДРОБНОСТИ ПО ТЕЛЕФОНУ!!! СКИДКА 6% ОТ ЦЕНЫ УКАЗАННОЙ В ОБЪЯВЛЕНИИ!!! Жилой комплекс премиум-класса находится в сердце столицы – в ЦАО, в Басманном районе Москвы, между Рубцовской набережной и Большой Почтовой улицей. Квартал расположен недалеко от метро Бауманская и в пешей доступности от метро Электрозаводская. Общая площадь комплекса — 113 789,4кв.м. Площадь застройки комплекса — 14 671,9кв.м. Это комфортный и тщательно продуманный жилой комплекс для тех, кто ценит высокий уровень комфорта и качество жизни. Дом бизнес класса. Квартира без отделки. Базовая комплектация квартиры включает работы по установке металлических входных дверей повышенной прочности, современных оконных и балконных блоков с энергоэффективными стеклопакетами, приборов учета и системы отопления. Входные группы с эффектным внешним оформлением, выполненные в соответствии с концепцией проекта. Перед подъездами работают камеры видеонаблюдения, а внутри предусмотрены кабины консьержей. Пассажирские лифты повышенной комфортности с возможностью спуска в паркинг, есть вместительные ниши для хранения колясок и сезонного имущества, присутствует специальное оборудование для удобства маломобильных жильцов и посетителей квартала. Насыщенная инфраструктура, разнообразие архитектурных решений, ландшафтный дизайн и собственный пешеходный бульвар. Здесь есть все для яркой и комфортной жизни, работы, творчества и воспитания детей. Подземный паркинг на 610 м/м. Для удобства горожан Правительством Москвы планируется построить новый пешеходный мост через реку Яузу, соединяющий новый жилой комплекс, Рубцовскую и Семеновскую набережные.    СКИДКА 6%   Исторический район,    ЦАО Москвы.   Первая линия набережной реки Яуза.   Охраняемая территория и консьерж-служба.   Небольшая плотность застройки   Высокая стадия готовности    Шаговая доступность до метро    Инфраструктура. Собственный детский сад, торгово-офисные комплексы, рестораны и кафе, а также галереи, творческие студии и арт- пространства для работы и отдыха.   Безопасность. Все входные группы жилых корпусов оборудованы видеодомофонной связью и системой контроля доступа, работает консьерж-служба.   Пешеходный мост. Для удобства жителей Правительством Москвы планируется построить новый пешеходный мост через реку Яузу   Отдых и прогулки. Собственный широкий зеленый бульвар, площадки для отдыха, пешеходные и велосипедные дорожки.   ИПОТЕКА С МИНИМАЛЬНОЙ СТАВКОЙ ОТ 9,2%  БОЛЕЕ ПОДРОБНУЮ ИНФОРМАЦИЮ ВЫ МОЖЕТЕ УЗНАТЬ ПОЗВОНИВ ПО УКАЗАННОМУ ТЕЛЕФОНУ!!!	55.779175	37.700415	"Центральный административный округ, к11"
1477280134	2-к квартира, 71 м², 6/24 эт.	Продается двухкомнатная квартира в новом доме без отделки на 6 этаже, секция 1, площадь 70.7 кв.м. В СОБСТВЕННОСТИ. СВОБОДНАЯ ПРОДАЖА. ДОГОВОР КУПЛИ-ПРОДАЖИ. Квартира класса "комфорт", свободная планировка. Потолки 2,75 метра с учетом выровненного пола. Просторная кухня, остекленная большая лоджия (около 5 кв.м ), панорамные окна. В доме видеонаблюдение, охрана, консьерж, подземный паркинг. Красивые дизайнерские входные группы и межквартирные холлы. Скоростные бесшумные лифты спускаются в подземный паркинг. Кладовые комнаты для хранения велосипедов, колясок и тд. НА ТЕРРИТОРИИ ДЕТСКИЙ САД (дошкольный пансион МГУ). Внутренний двор без машин с потрясающими детскими и спортивными площадками. Напротив жилого комплекса школа №2025. Cтанция метро "Мичуринский проспект" в пешей доступности (12 минут пешком). Рядом парки Олимпийской деревни и 50-летия Октября, ландшафтные заказники "Тропаревский" и "Долины реки Сетунь", Ботанический сад МГУ - отличные места для отдыха семьей или занятий спортом на свежем воздухе. Рядом престижные вузы столицы: МГУ, МГИМО, Академия ФСБ и Генштаба.   Идеальный вариант для взаимозачета. Ипотека. Социально благополучные соседи. МОСКОВСКАЯ ПРОПИСКА. Показываю ежедневно с 10.00 до 19.00	55.693622069062	37.469403076721	"Лобачевского улица, 118к5"
1629002796	1-к квартира, 21 м², 3/5 эт.	Сдам	55.815751	37.729162	"Москва, Ивантеевская улица, 28к1"
1290062473	3-к квартира, 61 м², 4/9 эт.	Более 3 лет в собственности.Полная стоимость в договоре.Показ по договоренности.Звоните,расскажу подробнее.Легкая альтернатива	55.82184982	37.87151337	"район Восточный, Восточный административный округ, Москва, Главная улица, 23"
1064301329	2-к квартира, 64.7 м², 18/22 эт.	Продается двухкомнатная квартира (№68) в новостройке Петра Алексеева, 12А по адресу Москва, Можайский район, ул. Петра Алексеева, вл. 12А. Общая площадь квартиры - 64.69 кв.м. Тип проекта, по которому построен дом - монолит. Стоимость квартиры - 12 822 916 руб. Способы оплаты можно уточнить у продавца. Более подробная информация по телефону.	55.71903	37.42613	"ул. Петра Алексеева, корп. 1"
1591398828	3-к квартира, 52 м², 9/9 эт.	Продам 3 ком квартиру. менее 3 лет. . Опека. Нужно в этом районе больше площадью. Агентство просьба не беспокоить. Показ по договоренности. Собственник.	55.680686	37.770244	"Москва, Ставропольская улица, 56к3"
1387753942	3-к квартира, 1000 м², 2/5 эт.	Тест	55.817863	37.640331	"Москва, проспект Мира, 128"
876696684	3-к квартира, 88 м², 15/17 эт.	Квартира в центре Щербинки,Новая Москва, 10 мин. пешком от ж.д станции Щербинка, рядом остановка маршруток до м. Бульвар Дмитрия Донского, удобная планировка, дом серии И-1723, развитая инфраструктура района, на первом этаже дома Супермаркет . Московская прописка! Продается просторная Трех комнатная квартира 88 м . 1.Комната 18 м 2.13.5 м 3. 14м гардеробная3.5 большой хол 10.5 , кухня 13.8м, лоджия застеклена 3.5м .Свободная продажа, один собственник, более трех лет, все документы готовы к сделке. Тихий зеленый район. Хорошие соседи. Вся инфраструктура в шаговой доступности, школы, сады, супермаркеты Пятерочка, Любимый, Магнит, Магнолия .Дикси . Большой выбор транспорта до метро, до платформы электричек 3 минут, до метро Бульвар Дмитрия Донского 15 минут на маршрутке, так же до Южная, Пражская, Академика Янгеля, Бунинская аллея, свободная продажа, никто не прописан . Квартира без ремонта .можно увеличить ванну и сан узел . Разумный торг	55.50574	37.564114	"Щербинка ул. Пущкинская 25"
1618502678	1-к квартира, 36.3 м², 13/14 эт.	_Продам квартиру в отличном состоянии, в июле 2018 года был сделан качественный ремонт, окна пластиковые, балкон, сан узел раздельный, в плитке до потолка, ламинат, встроенная кухня. полная стоимость в дкп, оперативный показ.развитая инфраструктура: школы, детские сады, магазины.	55.540592	37.517502	"Москва, улица Адмирала Лазарева, 47к1"
1446885379	3-к квартира, 82.2 м², 16/22 эт.	Квартиры комфорт-класса в Москве от застройщика  — М. Аннино и Лесопарковая (200 м) — Квартиры с чистовой и предчистовой отделкой, без отделки — Квартиры с отдельным входом и террасами — Потолки 2,95 м., панорамные окна — Дизайнерские лобби — Подземный паркинг и кладовые — Двор-парк без машин — Ипотека от 5,9%, военная ипотека, рассрочка 0%  О жилом квартале Лесная сказка стала былью в квартале «Лесопарковый» в 200 м от метро и Битцевского парка. Станции «Аннино» и «Улица Академика Янгеля» - в 3-5 мин. на авто. До Москвы по МКАД или Варшавскому ш. – не больше 30 мин. В домах 19-22 этажей квартиры с потолками 2,95 м, в том числе с чистовой и предчистовой отделкой. В подъездах большие холлы, лаунж-зона, колясочные и кладовые. На территории будет детский сад на 140 мест и школа. На 1 этажах фермерские продукты, кофейня, кондитерская, йога-студия, аптека, барбершоп, химчистка, супермаркет. Подземный паркинг на 307 машиномест оборудован лифтом. Двор-парк с аллеями, беседками и площадками для йоги, зелёными холмами и альпийскими лугами охраняется 24/7. В 2 мин. от дома Битцевский парк, подальше – Бутовский лес и Ботанический сад ВИЛАР. Живите на природе, оставаясь в городе! Принимаем звонки с 09:00 до 23:00	55.583039555275	37.581187712967	"ш. Варшавское, стр. 2"
1173661955	3-к квартира, 68 м², 12/12 эт.	Продаётся 3-х комнатная квартира. В квартире сделан отличный ремонт . Свободная продажа. Хорошее состояние, комнаты все изолированные. Окна пвх. Удобная транспортная доступность. Рядом школы, магазины. Зеленый район, Алешкинский лес. Транспортная доступность до метро.	55.85743713	37.41192245	"Москва, улица Героев Панфиловцев, 22к1"
1202661725	1-к квартира, 39.1 м², 10/12 эт.	Арт. 9273831 Продаётся 1 комнатная квартира (возможен торг). Общая площадь 39.10 кв.м площадь комнат 21 кв.м. Есть лоджия и раздельный санузел. Квартира расположена на 10 этаже 12 этажного панельного дома. Сделан косметический ремонт. Горячая вода из центрального водоснабжения, есть обычная ванна. Москва по адресу Героев Панфиловцев корпус 3 в 20 минутах пешком до метро Планерная.	55.858124	37.411418	"Героев Панфиловцев ул, 22к3"
1428918229	3-к квартира, 62.2 м², 5/19 эт.	ID 360- пожалуйста, сообщите этот номер специалисту!    Просторная трехкомнатная квартира с балконом в доме комфорт-класса.    О комплексе:   В районе хорошо развита инфраструктура. В пешей доступности детсады, школы, детская поликлиника, торговые центры "Алтуфьевский", "Парус" и "Вега", Институт культуры и искусств МГПУ.    ЖК находится рядом с Ботаническим садом им. Н.В. Цицина, Российской академией наук и живописным парком «Отрада».    Метро: «Владыкино» – 5-10 мин пешком, в 250 метрах от станции «Окружная», пассажирское движение по Малому кольцу МЖД.   Сдача в 2020 году.   Оформление в собственность. Возможна ипотека. Оформление пакета документов включено в стоимость.   Без комиссии!   Звоните!	55.85077880761287	37.57536697241821	"Москва, Нововладыкинский проезд, 1к4"
1412762671	4-к квартира, 170 м², 3/18 эт.	Арт. 4345243 А Вы хотите жить в доме бизнес-класса на набережной в 8 км от Кремля??Тогда это предложение именно для Вас!Бонус Агенту!!! ЖК Каскад располагается на Набережной Академика Туполева д. 15. В основе концепции лежит уникальное и современное решение вопроса рационального освоения придомовой территории для полноценных прогулок на открытом воздухе, детских площадок, множества предприятий сферы услуг.  Бесплатный охраняемый наземный паркинг. Подземный паркинг. Многоуровневая охрана. В шаговой доступности Театры и Исторические музеи. Артплей (Центр дизайна) и Винзавод (Центр современного искусства). Парки: Лефортовский и 1-го Мая. Теннисные корты. Несколько Бизнес центров и Государственных учреждений.В комплексе несколько магазинов, фермерская лавка, развлекательный боулинг и игровой комплекс. Бильярдный клуб и караоке. Банк и сейфовые ячейки. Фитнес клуб с 25 метровым бассейном. Медицинский центр. Детский клуб. Множество изысканных кафе и ресторанов.Большая светлая квартира общей площадью 170 квадратных метров с удобной рациональной планировкой для каждого члена семьи. Три изолированные спальни. Три санузла. Два балкона. Две оборудованные гардеробные. Бытовая комната. Функциональная кухня с современным оснащением. Удобная столовая . Домашний кинотеатр. Сауна. Спортивный детский уголок. Высококачественная отделка. Готовы показать в удобное именно вам время..	55.760692	37.68217	"Академика Туполева наб, 15"
1319821063	3-к квартира, 103 м², 14/32 эт.	ОФИЦИАЛЬНЫЙ ДЕПАРТАМЕНТ ПРОДАЖ ЖК АЭРОБУС. ЛОТ 1518.АКЦИЯ!  Трехкомнатная квартира площадью 103 кв. метров,на 14-м этаже ЖК бизнес класса «Аэробус». Солнечная и светлая квартира. Полностью меблированная, со всей бытовой техникой. Две изолированные комнаты, столовая-гостиная 35 кв.м.  В квартире евро- ремонт, кухня оборудованная техникой, встроенный измельчитель пищевых отходов, посудомоечная машина, телевизор в гостиной, кожаный диван, кресло, просторная спальня со шкафом-купе, встроенным сейфом, детская комната, высококачественные натуральные материалы (паркет на полу, керамогранит).   Два полноценных санузла, бойлер. Гардеробная комната.  Идеальное состояние. В наличии вся необходимая бытовая техника (стиральная машина, холодильник, бойлер на случай отключения горячей воды).  Wi-fi интернет, кабельное ТВ.  Охраняемая, огороженная территория, пропускная система. Двухуровневая охрана (на входе/въезде в комплекс и в каждом подъезде).  Непосредственно на территории комплекса расположены кафе, продуктовые магазины, прачечная, салоны красоты, мед. центр, аптека, детская и спортивная площадки и прочая инфраструктура.   УСЛОВИЯ АКЦИИ: ПОКУПАТЕЛЮ ДО 31 ДЕКАБРЯ 2018 ГОДА -КОФЕМАШИНА В ПОДАРОК!	55.806965	37.545869	"Кочновский проезд, 4к2"
1569819031	2-к квартира, 44 м², 5/5 эт.	Сдается двухкомнатная квартира от собственника на длительный срок. Дом в шаговой доступности от метро Медведково и Бабушкинская, так же 5 мин транспортом на любом автобусе или тролейбусе. В квартире есть все необходимое для комфортной жизни : спальные места, шкаф, 2 холодильника. стиральная машина, печь СВЧ. Залог можно разбить при желании на 2 месяца.  Рассмотрим всех платежеспособных кроме Кавказа и Азии.	55.8766098	37.63731384	"Москва, Полярная улица, 16к1"
1655723498	3-к квартира, 65 м², 7/14 эт.	Сдается впервые чистая и светлая 3-х комнатная квартир, расположенная в пешей доступности от ст. Тушинская и ж/д станции Тушино. В квартире есть вся необходимая мебель и техника, на фото представлена не вся мебель т.к. сейчас все в процессе доставки и установки. Подробности по телефону, рассмотрим всех порядочных и добросовестных.	55.828136982344	37.427137489653	"Москва, Тушинская, Стратонавтов проезд, д 12 к1"
1115337538	1-к квартира, 34.5 м², 11/16 эт.	ФОТО НАСТОЯЩИЕ!   Сдается только на длительный срок.   Установлены счетчики, вся мебель,техника,интернет,кабельное.   Рядом ТТК, школа, детский сад, поликлиника, супермаркеты, храм, парк им. 1 Мая. Стихийная парковка возле дома.   А так же вместе с этой квартирай наш специалит покажет вам все остальные лучшие варианты на районе    Звоните уважаемые клиенты будем рады вам помочь!	55.756412	37.679296	"ул Самокатная, 6к2"
1424583306	2-к квартира, 52 м², 12/14 эт.	МАКСИМАЛЬНО БЫСТРЫЙ ВЫХОД НА СДЕЛКУ. Все документы готовы!  Чистая квартира с новым, современным ремонтом - белые дубовые двери, шведские обои, туалет с биде.  Метро в шаговой доступности. Двое взрослых собственников, (муж+жена) собственность с момента сдачи дома. Никто не прописан.  Без обременений. Без опеки. Оперативный показ.  Альтернатива подобрана внесён залог (альтернатива в свободной продаже)  Квартира под авансом 8 марта 2019	55.702896	37.922359	"Москва, проспект Защитников Москвы, 13"
1481775384	3-к квартира, 56 м², 8/8 эт.	Срочно!!!Продается 3-х комнатная квартира в Мещанском районе. От метро "Проспект Мира", " Сухаревская" 3-5минут ходьбы. Рядом Ботанический сад МГУ, сквер, сетевые магазины( "перекресток"; "дикси"; "Spar" и т.д.)в собственности более трех лет. Контактное лицо Евгения.	55.776537	37.635557	"Москва, Грохольский переулок, 10/5"
1517166663	Сниму 1-к квартиру	Уважаемые собственники! Семейная пара москвичей, 45+. Снимем 1к квартиру на длительный срок, преимущественно в районе станций метро Кантемировская, Царицыно. Просим агентов не звонить. Спасибо!	55.6361084	37.65621948	"метро , Москва, Кантемировская"
1484614685	2-к квартира, 58 м², 7/21 эт.	Современная мебель, косметический ремонт	55.70832062	37.74760056	"Москва, Волжский бульвар"
1600461485	5-к квартира, 195 м², 2/6 эт.	Номер лота: 2036690, Продается квартира в элитном жилом комплексе переменной этажности «Покровский Берег». Ремонт квартиры выполнен в классическом стиле, с соблюдением всех норм для долговечной эксплуатации из высококачественных материалов. Планировка продумана для комфортного проживания и отдыха — кухня-гостиная, полноценные спальни, огромная гардеробная, 2 санузла, джакузи, кладовка, по стирочная. Высота потолков 3,2 м. Кухня полностью оборудована всей необходимой техникой — входит в стоимость.В квартиру есть отдельный вход.Есть два машино-места в подземном паркинге (возможно их приобретение).  На территории комплекса находятся все необходимые объекты инфраструктуры: магазины, рестораны, детские учреждения, спортивно-оздоровительный комплекс, деловой центр, теннисные корты, яхт-клуб, лодочная станция и пляж на берегу водохранилища. В подземной части комплекса оборудована двухуровневая автостоянка с автомойкой и станцией сервисного обслуживания. Регулярно проводятся озеленительные мероприятия. На территории комплекса не только сохранен природный ландшафт, но и создан парковый ансамбль с фонтанами и скульптурами. Пляж находится на территории жилого комплекса «Покровское-Глебово». Здесь расположены: Поля для игры в гольф и минигольф, ресторан, Клаб-хаус, кафе, ротонды-грили для барбекю, теннисный корт, детская площадка. Водные развлечения: парасейлинг, водные мотоциклы, водные лыжи и велосипеды, весельные лодки, серфинг и многое другое. Подробная информация по телефону. Показы по договоренности.	55.830387	37.470779	"Береговая улица, 4"
1420998408	1-к квартира, 39.6 м², 21/22 эт.	Продается однокомнатная квартира (№78) в новостройке Петра Алексеева, 12А по адресу Москва, Можайский район, ул. Петра Алексеева, вл. 12А. Общая площадь квартиры - 39.6 кв.м. Тип проекта, по которому построен дом - монолит. Стоимость квартиры - 8 741 644 руб. Способы оплаты можно уточнить у продавца. Более подробная информация по телефону.	55.71903058929	37.426127287033	"ул. Петра Алексеева, корп. 1"
1717220562	2-к квартира, 54 м², 2/9 эт.	Вячеслав. ОТЛИЧНОЕ ПРЕДЛОЖЕНИЕ! Предлагается в аренду 2-х комнатная квартира с изолированными комнатами, в 6 минутах от метро ЩЕЛКОВСКАЯ. Свежий ремонт, дубовый паркет. Укомплектована всей современной мебелью и техникой. Вся инфраструктура в шаговой доступности. Рядом красивый сквер, отличное место для прогулок. Рассмотрим порядочных и платежеспособных людей без животных. Смотрите фото,звоните!	55.805297	37.80541	"Москва, 11-я Парковая улица, 44к1"
1265767183	3-к квартира, 79.8 м², 3/17 эт.	Арт. 9149644 Продается просторная квартира в доме П-44Т 2003 года постройки с тремя изолированными комнатами, распашная. В квартире две застекленные лоджии, кухня 13м с эркером, встроенная кухонная мебель. Санузел раздельный, просторный холл - планировка идеальная. Состояние квартиры жилое, хорошее. В квартире может остаться мебель при необходимости. Подъезд чистый, есть консъерж. Собственность с момента постройки дома. Прямая продажа, быстрый выход на сделку. Район замечательный – все рядом: много магазинов, школы, сады, рядом парк с прудами. Много транспорта до трех станций метро. Торг.	55.874329	37.523501	"Талдомская ул, 17к1"
1333280471	2-к квартира, 62.5 м², 3/25 эт.	Арт. 9667487 Продаётся светлая, тихая квартира в ЖК Мичурино с прекрасным ремонтом, удобной планировкой, застекленным балконом и окнами во двор. Охраняемая территория, консьерж, во дворе детская площадка. Развитая инфраструктура: Школа, детский сад, супермаркеты, аптека, банки. Недалеко парк и пруд.	55.687441	37.464194	"Очаковская Б. ул, 5"
1416518539	1-к квартира, 43 м², 3/14 эт.	Квартира для сдачи посуточно и на часы, рядом с метро Планерная. Чистая, светлая. Постельное бельё, полотенца предоставляются. wi-fi. Командированным предоставляем отчетные документы. Заселение при наличии паспорта. Для мероприятий и праздников не сдается, в подъезде консьержка. Цена может меняться от количества гостей и сроков проживания. Качественная уборка перед каждым заездом гостей. Заселение круглосуточно	55.86385	37.436661	"Москва, Планерная улица, 14"
1657687853	4-к квартира, 170 м², 5/6 эт.	Арт. 2503628 Квартира с дизайнерским ремонтом. Гостиная с панорамными окнами и выделенной столовой зоной. Две спальни, комната свободного назначения. Постирочная, гардеробная. Огороженная, охраняемая территория. Подземный паркинг..	55.736351	37.588503	"Зубовский проезд, 1"
1720524346	3-к квартира, 74 м², 12/16 эт.	Продается просторная 3-комнатная квартира в пешей досягаемости около 4 минут от метро Юго-Западная, улица Проспект Вернадского дом 105 корпус 2. Симпатичный панельный дом 1976 года серии "П-23", чистый подъезд, этаж 12/16. Квартира общей площадь. 73.2 кв.м., с изолированными комнатами удобной правильной формы, распашонка, холл около 9 кв.м., кухня-10,4 кв.м., санузел раздельно, балкон выходит во двор. В квартире заменены окна на стеклопакеты, паркет в хорошем состоянии, есть -встроенные шкафы. Прекрасный зеленый двор,оборудованная детская площадка. Район с развитой инфраструктурой, вокруг всевозможные магазины, детская и взрослая поликлиники-3 минуты пешком, четыре детских сада-от 2-до 10 минут пешком, две школы-2 минуты пешком+гимназия-10 минут пешком, прекрасный лесопарк "Юго-западный". Прозрачные документы, полная стоимость. Легкая альтернатива.	55.66230774	37.48765564	"Москва, проспект Вернадского, 105к2"
1608899288	2-к квартира, 82 м², 4/17 эт.	Продается 2-х комнатная квартира 82 м2. В жилом элитном комплексе бизнес-класса "Донской Олимп", расположенном на пересечении Донского и Даниловского районов г. Москвы по ул. Серпуховский Вал, дом 21 корпус 3. В квартире две застекленных лоджии. Окна выходят на улицу. Стен нет. Планировка свободная. Территория закрытая. Есть подземный паркинг и кладовки. Хорошее транспортное расположение - примерно 10 мин до Садового кольца. Чуть меньше до ТТК. Собственность. Ключи на руках.	55.71015	37.60893	"ул. Серпуховский Вал, д. 21, корп. 3"
1318885132	1-к квартира, 30 м², 5/5 эт.	Сдам 1ку на длительный срок по адресу город Москва , Измайловский проспект 123/1 к 1. Комната просторная 18 метров , балкон застеклен , с/у совместный . Диван, шкаф, холодильник, стиральная машинка , кухонный гарнитур. Есть ковер , кому не нужен можно убрать. Чистая и уютная квартира. Отличный собственик. Можно с детьми !!! Исключительно без животных!!! Славян. На длительный срок. Ключи на руках ! Звоните!	55.789244	37.818193	"Москва, Измайловский проспект, 123/1к1"
1437799278	Сниму 1-к квартиру	Сниму комнату с ребёнком и мамой	55.831816	37.377789	"Москва, Северо-Западный административный округ, район Митино"
1587296526	Сниму 2-к квартиру	Снину 2_х комнатную.	55.793133	37.792809	"Москва, Первомайская улица"
820192435	2-к квартира, 55 м², 11/22 эт.	Вашему вниманию предлагается двухкомнатная квартира, , в шаговой доступности от метро м. Молодёжная (5 мин. пешком). Предлагается участникам и посетителям Международного выставочного центра КРОКУС ЭКСПО м. Мякинино, ДЕЛОВОЙ ЦЕНТР СИТИ м. Международная. Научно Инновационный Центр "СКОЛКОВО". И уважаемым гостям столицы -ценящим удобство и комфорт. 15 мин на метро до центра м. Арбатская(Кремль). Квартира после ремонта, В комнатах приятная обстановка,, уютная мебель, На кухне гарнитур. Имеется необходимая бытовая техника: холодильник, стиральная машина, душ, телевизор, чайник, микроволновая печь, утюг, интернет. В шаговой доступности продуктовые магазины, Медицинский центр В. И. Дикуля. Также в районе находится Научный Центр сердечно-сосудистой хирургии, Институт коронарной патологии и сосудистой хирургии. МАТИ. Развитая наземная транспортная инфраструктура. Рублёвское шоссе, Можайское шоссе, дублёры Б. филёвская, Молодогвардейская улица. Удобный выезд на МКАД. Удобный подьезд на машине. Во дворе стихийная парковка. Заключаем договора с организациями. Отчётные документы..Цена зависит от срока проживания и количество проживающих	55.741576	37.425575	"Рублёвское шоссе 95к1"
1359482275	2-к квартира, 56 м², 2/16 эт.	Продается уютная 2х комнатная квартира в тихом зеленом районе (напротив дома большой парк) Окна на две стороны (распашонка). Во дворе детские площадки. Рядом школы, детские сады, магазин напротив подъезда в 15 метрах! Чистый ухоженный подъезд. Недалеко и ТЦ Вегас (пешком 20 минут), чуть дальше Леруа Мерлен. Комнаты в квартире изолированные 17 и 13 м.кв, а кухня 11,7м.  Квартира с момента постройки дома в одной семье! все документы собраны. 2 взрослых собственника. Свободная продажа. (Собственник!) Агентов с предложениями помощи в продаже просьба не беспокоить.	55.585228	37.693192	"Москва, Лебедянская улица, 32, подъезд 2"
1075324270	2-к квартира, 54 м², 16/17 эт.	3 МИНУТЫ ОТ МЕТРО!!! Сдается двухкомнатная квартира, в пешей доступности от двух станций метро-ближайшая М. МИТИНО-3 минуты. Квартира с ремонтом, с выходом на ОСТЕКЛЕННЫЙ БАЛКОН, 2 ИЗОЛИРОВАННЫЕ КОМНАТЫ, меблирована, ЕСТЬ ВСЕ ДЛЯ КОМФОРТНОГО ПРОЖИВАНИЯ. Кухня укомплектована мебелью и бытовой техникой: плита, холодильник, вытяжка, эл. чайник, стиральная машина автомат. СУ раздельный. Интернет. Долгосрочная аренда. Замечательный собственник. Предложение для порядочных и платежеспособных клиентов (СЛАВЯНЕ), составы обсуждаются.	55.84905624	37.36300278	"Москва, Пятницкое шоссе, 27к1"
1385704664	2-к квартира, 56 м², 4/8 эт.	Арт. 4869725 Продаётся 2-комнатная квартира с качественным ремонтом.Все сделано качественными материалами со вкусом. Панорамные окна выходят на тихий двор. Имеется дизайн проект. Двор большой , есть детские площадки и места отдыха. Рядом набережная, в 15 минутах пешком метро. Общая площадь 55.80 кв.м, . Квартира расположена на 4 этаже 8 этажного кирпичного дома. Очень тихий и комфортный район. Рядом вся инфраструктура. Квартира в собственности, никто не прописан. Возможна ипотека и любые гос.программы.	55.710945	37.643821	"Павелецкий 3-й проезд, 3"
1136739912	3-к квартира, 90 м², 15/17 эт.	Арт. 5401374 Сдаётся 3 комнатная квартира. Дом расположен в зеленой зоне с развитой инфраструктурой, транспортная доступность. Квартира с евроремонтом, лоджия+балкон застеклены. Встроенная кухня.Планировка изолированная,раздельный санузел. Свободная парковка. Рассматривают семейную пару , можно с ребёнком от 8 лет, гр.РФ. Без животных!	55.597678	37.542833	"Голубинская ул, 29к3"
1142719164	1-к квартира, 26.2 м², 4/9 эт.	Арт. 9150232 Продаётся современная 1 комнатная меблированная квартира с дизайнерским ремонтом. Балкона нет. Совмещенный санузел. Квартира расположена на 4 этаже 9 этажного панельного дома. В 3 минутах пешком до метро Планерная. 1 собственник, свободная продажа, быстрый выход на сделку.	55.860009	37.432663	"Планерная ул, 3к1"
1129723789	2-к квартира, 38.2 м², 7/14 эт.	Арт. 9728578 Если Вы хотите в Москве жить в окружении зелени и природы, то это предложение для Вас! Компактная квартира с изолированными комнатами, расположенная в парке Кузьминки.  Идеально для семей: в соседнем дворе школа и детский сад. Два взрослых собственника, полная стоимость в договоре, свободная продажа	55.674006	37.806919	"Головачёва ул, 7к1"
1259545289	2-к квартира, 46 м², 1/5 эт.	После косметического ремонта. Ничего лишнего нет. Не бабушкин вариант. Собственник дружелюбный и ненадоедливый.	55.716884	37.452803	"Москва, Аминьевское шоссе, 26"
1445712302	3-к квартира, 102.3 м², 11/29 эт.	Вашему вниманию предлагается видовая трёхкомнатная квартира в доме бизнес-класса ЖК "Флотилия". Многофункциональный квартал "Флотилия" расположен всего в 10 минутах ходьбы от станции метро "Речной вокзал" рядом с живописным парком Дружбы и дворцом спорта "Динамо" в экологически чистом районе с отлично развитой торговой и социальной инфраструктурой. Функциональная планировка позволяет сделать три просторные комнаты, потолки три метра, общая площадь 102, 3 метра, в доме четыре лифта один из которых спускается в подземный паркинг, огороженная территория под круглосуточным видео наблюдением, въезд строго по пропускам. Внутри ЖК концептуальный культурно-развлекательный комплекс: кинотеатры, боулинг, игровой детский центр, фитнес, спорт зал, различные секции, бассейн, ресторан, супермаркет. Собственность оформлена продажа свободная.	55.853259	37.497414	"Москва, Флотская улица, 7к2"
1120099794	1-к квартира, 37.9 м², 12/17 эт.	Продаю однокомнатную квартиру идеальном состоянии, развитая инфраструктура, во дворе школы, детсады, бассейн. 8 минут пешком от метро Медведково. Свободная продажа, прописанных нет, более 3 лет в собственности, обременений нет. После ремонта, кондиционер, сантехника Испания, душевая кабина, входная дверь Барс, люстры из оникса, застекленный балкон. Мебель и технику оставлю в квартире, все готово к проживанию, заходи и живи. Продуман каждый сантиметр полезной площади, особенно на кухне. Раздвижной диван на кухне - дополнительное спальное место. Тамбур чистый, соседи очень порядочные, чистоплотные и тихие. Оперативный показ.	55.881472	37.649	"Москва, проезд Шокальского, 31к1"